start=new Date('2023-03-22T00:00:00.000Z').valueOf();
sats=[{"OBJECT_ID":"2022-051AE","INCLINATION":"53.2169","SITE":"AFWTR","RCS_SIZE":"LARGE","LAUNCH_DATE":"2022-05-13","SEMIMAJOR_AXIS":"6917.844","MEAN_MOTION":"15.08851818","COUNTRY_CODE":"US","CENTER_NAME":"EARTH","OBJECT_TYPE":"PAYLOAD","ECCENTRICITY":"0.00009770","ELEMENT_SET_NO":"999","MEAN_MOTION_DDOT":"0.0000000000000","REV_AT_EPOCH":"4774","GP_ID":"228620326","TIME_SYSTEM":"UTC","OBJECT_NAME":"STARLINK-3955","RA_OF_ASC_NODE":"319.8422","BSTAR":"0.00051615000000","PERIAPSIS":"539.033","EPOCH":"2023-03-21T19:27:03.095136","MEAN_ELEMENT_THEORY":"SGP4","TLE_LINE1":"1 52561U 22051AE  23080.81045249  .00007939  00000-0  51615-3 0  9994","DECAY_DATE":null,"MEAN_ANOMALY":"305.7647","CLASSIFICATION_TYPE":"U","APOAPSIS":"540.385","ARG_OF_PERICENTER":"54.3436","NORAD_CAT_ID":"52561","PERIOD":"95.437","EPHEMERIS_TYPE":"0","REF_FRAME":"TEME","MEAN_MOTION_DOT":"0.00007939","TLE_LINE2":"2 52561  53.2169 319.8422 0000977  54.3436 305.7647 15.08851818 47743","FILE":"3866953"},{"FILE":"3866953","TLE_LINE2":"2 52562  53.2154 304.5007 0001319  93.8414 266.2729 15.08844782 47961","MEAN_MOTION_DOT":"0.00002078","REF_FRAME":"TEME","PERIOD":"95.437","EPHEMERIS_TYPE":"0","NORAD_CAT_ID":"52562","ARG_OF_PERICENTER":"93.8414","APOAPSIS":"540.643","MEAN_ANOMALY":"266.2729","CLASSIFICATION_TYPE":"U","DECAY_DATE":null,"TLE_LINE1":"1 52562U 22051AF  23080.88727523  .00002078  00000-0  14857-3 0  9990","MEAN_ELEMENT_THEORY":"SGP4","EPOCH":"2023-03-21T21:17:40.579872","PERIAPSIS":"538.818","RA_OF_ASC_NODE":"304.5007","BSTAR":"0.00014857000000","TIME_SYSTEM":"UTC","OBJECT_NAME":"STARLINK-3957","GP_ID":"228621577","REV_AT_EPOCH":"4796","MEAN_MOTION_DDOT":"0.0000000000000","ELEMENT_SET_NO":"999","ECCENTRICITY":"0.00013190","OBJECT_TYPE":"PAYLOAD","CENTER_NAME":"EARTH","COUNTRY_CODE":"US","MEAN_MOTION":"15.08844782","LAUNCH_DATE":"2022-05-13","SEMIMAJOR_AXIS":"6917.866","RCS_SIZE":"LARGE","SITE":"AFWTR","OBJECT_ID":"2022-051AF","INCLINATION":"53.2154"},{"REV_AT_EPOCH":"4776","GP_ID":"228621828","OBJECT_NAME":"STARLINK-3942","TIME_SYSTEM":"UTC","BSTAR":"0.00028776000000","RA_OF_ASC_NODE":"319.2308","EPOCH":"2023-03-21T22:43:07.454784","PERIAPSIS":"538.740","MEAN_ELEMENT_THEORY":"SGP4","TLE_LINE1":"1 52563U 22051AG  23080.94661406  .00004296  00000-0  28776-3 0  9994","DECAY_DATE":null,"CLASSIFICATION_TYPE":"U","MEAN_ANOMALY":"260.7456","APOAPSIS":"540.698","ARG_OF_PERICENTER":"99.3697","NORAD_CAT_ID":"52563","PERIOD":"95.437","EPHEMERIS_TYPE":"0","MEAN_MOTION_DOT":"0.00004296","REF_FRAME":"TEME","TLE_LINE2":"2 52563  53.2156 319.2308 0001415  99.3697 260.7456 15.08848747 47761","FILE":"3866953","INCLINATION":"53.2156","OBJECT_ID":"2022-051AG","SITE":"AFWTR","RCS_SIZE":"MEDIUM","SEMIMAJOR_AXIS":"6917.854","LAUNCH_DATE":"2022-05-13","MEAN_MOTION":"15.08848747","COUNTRY_CODE":"US","CENTER_NAME":"EARTH","OBJECT_TYPE":"PAYLOAD","ECCENTRICITY":"0.00014150","ELEMENT_SET_NO":"999","MEAN_MOTION_DDOT":"0.0000000000000"},{"CENTER_NAME":"EARTH","OBJECT_TYPE":"PAYLOAD","ECCENTRICITY":"0.00014300","ELEMENT_SET_NO":"999","MEAN_MOTION_DDOT":"0.0000000000000","INCLINATION":"53.2178","OBJECT_ID":"2022-051AH","SITE":"AFWTR","LAUNCH_DATE":"2022-05-13","SEMIMAJOR_AXIS":"6917.850","RCS_SIZE":"LARGE","MEAN_MOTION":"15.08850007","COUNTRY_CODE":"US","MEAN_ANOMALY":"276.0682","CLASSIFICATION_TYPE":"U","DECAY_DATE":null,"APOAPSIS":"540.704","ARG_OF_PERICENTER":"84.0473","NORAD_CAT_ID":"52564","EPHEMERIS_TYPE":"0","PERIOD":"95.437","MEAN_MOTION_DOT":"0.00003740","REF_FRAME":"TEME","FILE":"3866953","TLE_LINE2":"2 52564  53.2178 319.2692 0001430  84.0473 276.0682 15.08850007 47765","GP_ID":"228620576","REV_AT_EPOCH":"4776","TIME_SYSTEM":"UTC","OBJECT_NAME":"STARLINK-3959","BSTAR":"0.00025291000000","RA_OF_ASC_NODE":"319.2692","EPOCH":"2023-03-21T22:33:54.239904","PERIAPSIS":"538.726","MEAN_ELEMENT_THEORY":"SGP4","TLE_LINE1":"1 52564U 22051AH  23080.94021111  .00003740  00000-0  25291-3 0  9990"},{"GP_ID":"228620826","REV_AT_EPOCH":"4796","OBJECT_NAME":"STARLINK-3911","TIME_SYSTEM":"UTC","PERIAPSIS":"538.702","EPOCH":"2023-03-21T21:22:58.181952","BSTAR":"0.00024693000000","RA_OF_ASC_NODE":"304.4849","TLE_LINE1":"1 52565U 22051AJ  23080.89095118  .00003645  00000-0  24693-3 0  9992","MEAN_ELEMENT_THEORY":"SGP4","MEAN_ANOMALY":"270.2843","CLASSIFICATION_TYPE":"U","DECAY_DATE":null,"NORAD_CAT_ID":"52565","APOAPSIS":"540.725","ARG_OF_PERICENTER":"89.8317","PERIOD":"95.437","EPHEMERIS_TYPE":"0","FILE":"3866953","TLE_LINE2":"2 52565  53.2147 304.4849 0001462  89.8317 270.2843 15.08850484 47963","REF_FRAME":"TEME","MEAN_MOTION_DOT":"0.00003645","SITE":"AFWTR","INCLINATION":"53.2147","OBJECT_ID":"2022-051AJ","MEAN_MOTION":"15.08850484","LAUNCH_DATE":"2022-05-13","SEMIMAJOR_AXIS":"6917.848","RCS_SIZE":"LARGE","COUNTRY_CODE":"US","OBJECT_TYPE":"PAYLOAD","CENTER_NAME":"EARTH","ECCENTRICITY":"0.00014620","MEAN_MOTION_DDOT":"0.0000000000000","ELEMENT_SET_NO":"999"},{"ECCENTRICITY":"0.00013550","ELEMENT_SET_NO":"999","MEAN_MOTION_DDOT":"0.0000000000000","CENTER_NAME":"EARTH","OBJECT_TYPE":"PAYLOAD","LAUNCH_DATE":"2022-05-13","SEMIMAJOR_AXIS":"6917.967","RCS_SIZE":"LARGE","MEAN_MOTION":"15.08811751","COUNTRY_CODE":"US","INCLINATION":"53.2144","OBJECT_ID":"2022-051AK","SITE":"AFWTR","EPHEMERIS_TYPE":"0","PERIOD":"95.439","MEAN_MOTION_DOT":"-0.00002982","REF_FRAME":"TEME","FILE":"3866953","TLE_LINE2":"2 52566  53.2144 319.3692 0001355 117.4173 242.6957 15.08811751 47762","MEAN_ANOMALY":"242.6957","CLASSIFICATION_TYPE":"U","DECAY_DATE":null,"ARG_OF_PERICENTER":"117.4173","APOAPSIS":"540.769","NORAD_CAT_ID":"52566","BSTAR":"-0.00016951000000","RA_OF_ASC_NODE":"319.3692","PERIAPSIS":"538.894","EPOCH":"2023-03-21T22:00:46.211328","MEAN_ELEMENT_THEORY":"SGP4","TLE_LINE1":"1 52566U 22051AK  23080.91720152 -.00002982  00000-0 -16951-3 0  9992","GP_ID":"228621078","REV_AT_EPOCH":"4776","TIME_SYSTEM":"UTC","OBJECT_NAME":"STARLINK-3938"},{"INCLINATION":"53.2167","OBJECT_ID":"2022-051AL","SITE":"AFWTR","RCS_SIZE":"LARGE","SEMIMAJOR_AXIS":"6917.855","LAUNCH_DATE":"2022-05-13","MEAN_MOTION":"15.08848313","COUNTRY_CODE":"US","CENTER_NAME":"EARTH","OBJECT_TYPE":"PAYLOAD","ECCENTRICITY":"0.00011770","ELEMENT_SET_NO":"999","MEAN_MOTION_DDOT":"0.0000000000000","REV_AT_EPOCH":"4796","GP_ID":"228621329","TIME_SYSTEM":"UTC","OBJECT_NAME":"STARLINK-3929","BSTAR":"0.00017569000000","RA_OF_ASC_NODE":"304.5145","PERIAPSIS":"538.906","EPOCH":"2023-03-21T21:12:22.472352","MEAN_ELEMENT_THEORY":"SGP4","TLE_LINE1":"1 52567U 22051AL  23080.88359343  .00002510  00000-0  17569-3 0  9990","DECAY_DATE":null,"CLASSIFICATION_TYPE":"U","MEAN_ANOMALY":"268.4138","APOAPSIS":"540.534","ARG_OF_PERICENTER":"91.6989","NORAD_CAT_ID":"52567","PERIOD":"95.437","EPHEMERIS_TYPE":"0","MEAN_MOTION_DOT":"0.00002510","REF_FRAME":"TEME","TLE_LINE2":"2 52567  53.2167 304.5145 0001177  91.6989 268.4138 15.08848313 47960","FILE":"3866953"},{"PERIOD":"95.436","EPHEMERIS_TYPE":"0","TLE_LINE2":"2 52568  53.2144 304.5688 0001406  93.6075 266.5078 15.08861647 47968","FILE":"3866953","MEAN_MOTION_DOT":"0.00016640","REF_FRAME":"TEME","DECAY_DATE":null,"MEAN_ANOMALY":"266.5078","CLASSIFICATION_TYPE":"U","NORAD_CAT_ID":"52568","ARG_OF_PERICENTER":"93.6075","APOAPSIS":"540.652","EPOCH":"2023-03-21T20:56:28.611168","PERIAPSIS":"538.707","BSTAR":"0.00106050000000","RA_OF_ASC_NODE":"304.5688","TLE_LINE1":"1 52568U 22051AM  23080.87255337  .00016640  00000-0  10605-2 0  9990","MEAN_ELEMENT_THEORY":"SGP4","REV_AT_EPOCH":"4796","GP_ID":"228620077","OBJECT_NAME":"STARLINK-3930","TIME_SYSTEM":"UTC","ECCENTRICITY":"0.00014060","MEAN_MOTION_DDOT":"0.0000000000000","ELEMENT_SET_NO":"999","OBJECT_TYPE":"PAYLOAD","CENTER_NAME":"EARTH","MEAN_MOTION":"15.08861647","RCS_SIZE":"LARGE","LAUNCH_DATE":"2022-05-13","SEMIMAJOR_AXIS":"6917.814","COUNTRY_CODE":"US","SITE":"AFWTR","INCLINATION":"53.2144","OBJECT_ID":"2022-051AM"},{"ECCENTRICITY":"0.00012690","MEAN_MOTION_DDOT":"0.0000000000000","ELEMENT_SET_NO":"999","OBJECT_TYPE":"PAYLOAD","CENTER_NAME":"EARTH","MEAN_MOTION":"15.08848246","LAUNCH_DATE":"2022-05-13","SEMIMAJOR_AXIS":"6917.855","RCS_SIZE":"LARGE","COUNTRY_CODE":"US","SITE":"AFWTR","INCLINATION":"53.2146","OBJECT_ID":"2022-051AN","EPHEMERIS_TYPE":"0","PERIOD":"95.437","FILE":"3866953","TLE_LINE2":"2 52569  53.2146 304.5337 0001269  97.9464 262.1672 15.08848246 47960","MEAN_MOTION_DOT":"0.00002542","REF_FRAME":"TEME","MEAN_ANOMALY":"262.1672","CLASSIFICATION_TYPE":"U","DECAY_DATE":null,"NORAD_CAT_ID":"52569","APOAPSIS":"540.598","ARG_OF_PERICENTER":"97.9464","EPOCH":"2023-03-21T21:07:04.471968","PERIAPSIS":"538.842","RA_OF_ASC_NODE":"304.5337","BSTAR":"0.00017773000000","TLE_LINE1":"1 52569U 22051AN  23080.87991287  .00002542  00000-0  17773-3 0  9992","MEAN_ELEMENT_THEORY":"SGP4","GP_ID":"228620327","REV_AT_EPOCH":"4796","TIME_SYSTEM":"UTC","OBJECT_NAME":"STARLINK-3927"},{"MEAN_ELEMENT_THEORY":"SGP4","TLE_LINE1":"1 52570U 22051AP  23080.86887623  .00000161  00000-0  28224-4 0  9990","RA_OF_ASC_NODE":"304.5784","BSTAR":"0.00002822400000","EPOCH":"2023-03-21T20:51:10.906272","PERIAPSIS":"538.861","OBJECT_NAME":"STARLINK-3924","TIME_SYSTEM":"UTC","REV_AT_EPOCH":"4796","GP_ID":"228621578","MEAN_MOTION_DOT":"0.00000161","REF_FRAME":"TEME","TLE_LINE2":"2 52570  53.2162 304.5784 0001258  83.2575 276.8560 15.08844780 47962","FILE":"3866953","PERIOD":"95.437","EPHEMERIS_TYPE":"0","APOAPSIS":"540.601","ARG_OF_PERICENTER":"83.2575","NORAD_CAT_ID":"52570","DECAY_DATE":null,"MEAN_ANOMALY":"276.8560","CLASSIFICATION_TYPE":"U","COUNTRY_CODE":"US","RCS_SIZE":"LARGE","LAUNCH_DATE":"2022-05-13","SEMIMAJOR_AXIS":"6917.866","MEAN_MOTION":"15.08844780","OBJECT_ID":"2022-051AP","INCLINATION":"53.2162","SITE":"AFWTR","ELEMENT_SET_NO":"999","MEAN_MOTION_DDOT":"0.0000000000000","ECCENTRICITY":"0.00012580","CENTER_NAME":"EARTH","OBJECT_TYPE":"PAYLOAD"}];
